{
  "type": "FeatureCollection",
  "features": [
    {
      "type": "Feature",
      "properties": {
        "norad_id": 45344,
        "name": "BEIDOU-3 G2 (C60)",
        "group": "gnss",
        "lat": -2.475325582733016,
        "lon": -54.900963050692965,
        "alt_km": 35767.719296111245,
        "timestamp": "2025-12-09T09:46:47.890143+00:00",
        "meta_object_name": "BEIDOU-3 G2 (C60)",
        "meta_object_id": "2020-017A",
        "meta_epoch": "2025-12-08T17:24:33.367680",
        "meta_mean_motion": 1.00273181,
        "meta_eccentricity": 0.00043587,
        "meta_inclination": 2.49,
        "meta_ra_of_asc_node": 43.8378,
        "meta_arg_of_pericenter": 265.5358,
        "meta_mean_anomaly": 109.5017,
        "meta_ephemeris_type": 0,
        "meta_classification_type": "U",
        "meta_norad_cat_id": 45344,
        "meta_element_set_no": 999,
        "meta_rev_at_epoch": 2135,
        "meta_bstar": 0,
        "meta_mean_motion_dot": -1.39e-06,
        "meta_mean_motion_ddot": 0,
        "tle_line1": "1 45344U 20017A   25342.72538620 -.00000139  00000+0  00000+0 0  9991",
        "tle_line2": "2 45344   2.4900  43.8378 0004358 265.5358 109.5017  1.00273181 21351"
      },
      "geometry": {
        "type": "Point",
        "coordinates": [
          -54.900963050692965,
          -2.475325582733016
        ]
      }
    },
    {
      "type": "Feature",
      "properties": {
        "norad_id": 45358,
        "name": "COSMOS 2545 (760)",
        "group": "gnss",
        "lat": 1.1102266104433882,
        "lon": 138.54409961747547,
        "alt_km": 19119.85369677143,
        "timestamp": "2025-12-09T09:46:47.890155+00:00",
        "meta_object_name": "COSMOS 2545 (760)",
        "meta_object_id": "2020-018A",
        "meta_epoch": "2025-12-08T16:55:08.218272",
        "meta_mean_motion": 2.13102249,
        "meta_eccentricity": 0.00119292,
        "meta_inclination": 64.4721,
        "meta_ra_of_asc_node": 319.1115,
        "meta_arg_of_pericenter": 248.7134,
        "meta_mean_anomaly": 111.1544,
        "meta_ephemeris_type": 0,
        "meta_classification_type": "U",
        "meta_norad_cat_id": 45358,
        "meta_element_set_no": 999,
        "meta_rev_at_epoch": 4460,
        "meta_bstar": 0,
        "meta_mean_motion_dot": -5e-07,
        "meta_mean_motion_ddot": 0,
        "tle_line1": "1 45358U 20018A   25342.70495623 -.00000050  00000+0  00000+0 0  9992",
        "tle_line2": "2 45358  64.4721 319.1115 0011929 248.7134 111.1544  2.13102249 44608"
      },
      "geometry": {
        "type": "Point",
        "coordinates": [
          138.54409961747547,
          1.1102266104433882
        ]
      }
    },
    {
      "type": "Feature",
      "properties": {
        "norad_id": 45807,
        "name": "BEIDOU-3 G3 (C61)",
        "group": "gnss",
        "lat": -1.986662517412888,
        "lon": -24.424507837807564,
        "alt_km": 35765.19225985496,
        "timestamp": "2025-12-09T09:46:47.890172+00:00",
        "meta_object_name": "BEIDOU-3 G3 (C61)",
        "meta_object_id": "2020-040A",
        "meta_epoch": "2025-12-08T17:33:17.532288",
        "meta_mean_motion": 1.00275813,
        "meta_eccentricity": 0.00060306,
        "meta_inclination": 1.9816,
        "meta_ra_of_asc_node": 66.5886,
        "meta_arg_of_pericenter": 306.262,
        "meta_mean_anomaly": 78.7159,
        "meta_ephemeris_type": 0,
        "meta_classification_type": "U",
        "meta_norad_cat_id": 45807,
        "meta_element_set_no": 999,
        "meta_rev_at_epoch": 2016,
        "meta_bstar": 0,
        "meta_mean_motion_dot": -3.52e-06,
        "meta_mean_motion_ddot": 0,
        "tle_line1": "1 45807U 20040A   25342.73145292 -.00000352  00000+0  00000+0 0  9998",
        "tle_line2": "2 45807   1.9816  66.5886 0006030 306.2620  78.7159  1.00275813 20161"
      },
      "geometry": {
        "type": "Point",
        "coordinates": [
          -24.424507837807564,
          -1.986662517412888
        ]
      }
    },
    {
      "type": "Feature",
      "properties": {
        "norad_id": 45854,
        "name": "GPS BIII-3  (PRN 23)",
        "group": "gnss",
        "lat": 55.762606104032194,
        "lon": 140.2145130224378,
        "alt_km": 20218.293244013483,
        "timestamp": "2025-12-09T09:46:47.890186+00:00",
        "meta_object_name": "GPS BIII-3  (PRN 23)",
        "meta_object_id": "2020-041A",
        "meta_epoch": "2025-12-08T06:52:29.701632",
        "meta_mean_motion": 2.00561767,
        "meta_eccentricity": 0.0060382,
        "meta_inclination": 56.544,
        "meta_ra_of_asc_node": 36.3588,
        "meta_arg_of_pericenter": 203.2609,
        "meta_mean_anomaly": 165.7518,
        "meta_ephemeris_type": 0,
        "meta_classification_type": "U",
        "meta_norad_cat_id": 45854,
        "meta_element_set_no": 999,
        "meta_rev_at_epoch": 4021,
        "meta_bstar": 0,
        "meta_mean_motion_dot": -7.9e-07,
        "meta_mean_motion_ddot": 0,
        "tle_line1": "1 45854U 20041A   25342.28645488 -.00000079  00000+0  00000+0 0  9999",
        "tle_line2": "2 45854  56.5440  36.3588 0060382 203.2609 165.7518  2.00561767 40210"
      },
      "geometry": {
        "type": "Point",
        "coordinates": [
          140.2145130224378,
          55.762606104032194
        ]
      }
    },
    {
      "type": "Feature",
      "properties": {
        "norad_id": 46114,
        "name": "GALAXY 30 (WAAS/PRN 135)",
        "group": "gnss",
        "lat": 0.03576727439894639,
        "lon": 100.07961346196556,
        "alt_km": 35795.522139814864,
        "timestamp": "2025-12-09T09:46:47.890200+00:00",
        "meta_object_name": "GALAXY 30 (WAAS/PRN 135)",
        "meta_object_id": "2020-056C",
        "meta_epoch": "2025-12-09T02:50:38.725728",
        "meta_mean_motion": 1.00271328,
        "meta_eccentricity": 0.0002397,
        "meta_inclination": 0.0174,
        "meta_ra_of_asc_node": 357.6559,
        "meta_arg_of_pericenter": 259.2548,
        "meta_mean_anomaly": 98.8607,
        "meta_ephemeris_type": 0,
        "meta_classification_type": "U",
        "meta_norad_cat_id": 46114,
        "meta_element_set_no": 999,
        "meta_rev_at_epoch": 1938,
        "meta_bstar": 0,
        "meta_mean_motion_dot": 3.9e-07,
        "meta_mean_motion_ddot": 0,
        "tle_line1": "1 46114U 20056C   25343.11850377  .00000039  00000+0  00000+0 0  9998",
        "tle_line2": "2 46114   0.0174 357.6559 0002397 259.2548  98.8607  1.00271328 19389"
      },
      "geometry": {
        "type": "Point",
        "coordinates": [
          100.07961346196556,
          0.03576727439894639
        ]
      }
    },
    {
      "type": "Feature",
      "properties": {
        "norad_id": 46805,
        "name": "COSMOS 2547 (705K)",
        "group": "gnss",
        "lat": 30.91055163278485,
        "lon": -144.6562849250489,
        "alt_km": 19141.92909037612,
        "timestamp": "2025-12-09T09:46:47.890212+00:00",
        "meta_object_name": "COSMOS 2547 (705K)",
        "meta_object_id": "2020-075A",
        "meta_epoch": "2025-12-07T22:54:27.999936",
        "meta_mean_motion": 2.13099949,
        "meta_eccentricity": 0.00062185,
        "meta_inclination": 64.596,
        "meta_ra_of_asc_node": 198.8564,
        "meta_arg_of_pericenter": 228.8188,
        "meta_mean_anomaly": 131.2072,
        "meta_ephemeris_type": 0,
        "meta_classification_type": "U",
        "meta_norad_cat_id": 46805,
        "meta_element_set_no": 999,
        "meta_rev_at_epoch": 3983,
        "meta_bstar": 0,
        "meta_mean_motion_dot": 5.3e-07,
        "meta_mean_motion_ddot": 0,
        "tle_line1": "1 46805U 20075A   25341.95449074  .00000053  00000+0  00000+0 0  9990",
        "tle_line2": "2 46805  64.5960 198.8564 0006218 228.8188 131.2072  2.13099949 39835"
      },
      "geometry": {
        "type": "Point",
        "coordinates": [
          -144.6562849250489,
          30.91055163278485
        ]
      }
    },
    {
      "type": "Feature",
      "properties": {
        "norad_id": 46826,
        "name": "GPS BIII-4  (PRN 14)",
        "group": "gnss",
        "lat": 48.948009351907444,
        "lon": -85.01930077609508,
        "alt_km": 20296.259899931545,
        "timestamp": "2025-12-09T09:46:47.890224+00:00",
        "meta_object_name": "GPS BIII-4  (PRN 14)",
        "meta_object_id": "2020-078A",
        "meta_epoch": "2025-12-08T14:24:03.318624",
        "meta_mean_motion": 2.00566768,
        "meta_eccentricity": 0.00645741,
        "meta_inclination": 54.0161,
        "meta_ra_of_asc_node": 218.509,
        "meta_arg_of_pericenter": 203.354,
        "meta_mean_anomaly": 2.942,
        "meta_ephemeris_type": 0,
        "meta_classification_type": "U",
        "meta_norad_cat_id": 46826,
        "meta_element_set_no": 999,
        "meta_rev_at_epoch": 3768,
        "meta_bstar": 0,
        "meta_mean_motion_dot": 1.6e-07,
        "meta_mean_motion_ddot": 0,
        "tle_line1": "1 46826U 20078A   25342.60003841  .00000016  00000+0  00000+0 0  9996",
        "tle_line2": "2 46826  54.0161 218.5090 0064574 203.3540   2.9420  2.00566768 37684"
      },
      "geometry": {
        "type": "Point",
        "coordinates": [
          -85.01930077609508,
          48.948009351907444
        ]
      }
    }
  ]
}